OBJECT_NAME,OBJECT_ID,EPOCH,MEAN_MOTION,ECCENTRICITY,INCLINATION,RA_OF_ASC_NODE,ARG_OF_PERICENTER,MEAN_ANOMALY,EPHEMERIS_TYPE,CLASSIFICATION_TYPE,NORAD_CAT_ID,ELEMENT_SET_NO,REV_AT_EPOCH,BSTAR,MEAN_MOTION_DOT,MEAN_MOTION_DDOT
STARLINK-37824,2026-157P,2026-07-20T22:00:01.999584,15.80908926,.00008863,53.1594,266.9393,96.6079,287.2405,0,U,69956,999,307,-.43707213E-3,-.86247E-3,0
STARLINK-37919,2026-157Q,2026-07-20T22:00:01.999584,15.80883820,.0001012,53.1594,266.9371,93.3448,291.4802,0,U,69957,999,307,-.30973623E-3,-.61427E-3,0
STARLINK-37964,2026-157R,2026-07-20T22:00:01.999584,15.80898698,.00006832,53.1593,266.9238,89.1013,302.2005,0,U,69958,999,307,-.3762944E-3,-.74414E-3,0
STARLINK-37907,2026-157S,2026-07-20T22:00:01.999584,15.80896253,.00010457,53.1593,266.9029,88.7908,312.6244,0,U,69959,999,307,-.57012694E-3,-.111897E-2,0
STARLINK-37901,2026-157T,2026-07-20T22:00:01.999584,15.80890361,.00010113,53.1592,266.8895,95.1730,312.8271,0,U,69960,999,307,-.30621255E-3,-.60759E-3,0
STARLINK-37910,2026-157U,2026-07-20T22:00:01.999584,15.80902231,.00009983,53.1592,266.8703,88.7396,328.3191,0,U,69961,999,307,-.37450863E-3,-.74082E-3,0
STARLINK-37925,2026-157V,2026-07-20T22:00:01.999584,15.80881852,.00010201,53.1590,266.8663,87.3405,331.7449,0,U,69962,999,307,-.47342435E-3,-.93174E-3,0
STARLINK-37931,2026-157W,2026-07-20T22:00:01.999584,15.80898757,.00007875,53.1591,266.8595,95.5838,326.7190,0,U,69963,999,307,-.34828238E-3,-.68971E-3,0
STARLINK-37914,2026-157X,2026-07-20T22:00:01.999584,15.80862386,.00011733,53.1634,266.8245,94.0841,344.7856,0,U,69964,999,307,-.73178219E-4,-.15109E-3,0
STARLINK-37840,2026-157Y,2026-07-20T22:00:01.999584,15.80885419,.00008791,53.1589,266.7894,91.2356,4.4852,0,U,69965,999,307,-.25661531E-3,-.51075E-3,0
STARLINK-37894,2026-157Z,2026-07-20T22:00:01.999584,15.80880491,.00011754,53.1632,266.8039,72.6230,16.2977,0,U,69966,999,307,-.18155543E-3,-.36394E-3,0
STARLINK-37875,2026-157AA,2026-07-20T22:00:01.999584,15.80901618,.00010831,53.1588,266.7823,84.1022,14.9609,0,U,69967,999,307,-.38928636E-3,-.76951E-3,0
STARLINK-36218,2026-157AB,2026-07-20T22:00:01.999584,15.80877745,.00008759,53.1590,266.7549,93.2476,18.8826,0,U,69968,999,272,-.30352206E-3,-.602E-3,0
STARLINK-37921,2026-157AC,2026-07-20T22:00:01.999584,15.80902151,.00010564,53.1593,266.7176,79.1025,50.9761,0,U,69969,999,307,-.44252925E-3,-.87279E-3,0
STARLINK-37896,2026-157AD,2026-07-20T22:00:01.999584,15.80905826,.00010139,53.1591,266.7154,92.1661,39.0054,0,U,69970,999,307,-.46940947E-3,-.92498E-3,0
STARLINK-37922,2026-157AE,2026-07-20T22:00:01.999584,15.80908252,.00010214,53.1593,266.7125,91.1162,41.3798,0,U,69971,999,307,-.45727819E-3,-.9016E-3,0
CHUANG XIN 26 (CX-26),2026-158A,2026-07-20T21:03:09.171072,14.25124225,.00049549,49.9830,256.4389,318.6414,41.4123,0,U,69972,999,151,.2139338E-5,-.155E-5,0
CZ-10B DEB,2026-158B,2026-07-20T21:05:43.784736,14.24892309,.00058508,49.9833,256.4490,329.8508,30.2068,0,U,69973,999,151,.15381561E-3,.202E-5,0
CZ-10B R/B,2026-158C,2026-07-20T10:55:09.846912,14.64300905,.01979891,49.9628,255.3274,220.6667,137.9334,0,U,69974,999,149,.39577301E-4,.34E-6,0
STARLINK-38024,2026-159A,2026-07-20T22:00:01.999584,15.80814499,.00015312,97.2851,40.9159,97.6887,18.8614,0,U,69975,999,277,-.53086315E-4,-.10298E-3,0
STARLINK-37993,2026-159B,2026-07-20T22:00:01.999584,15.80808923,.00012157,97.2851,40.9176,89.8015,31.0246,0,U,69976,999,277,-.1777302E-4,-.3544E-4,0
STARLINK-37995,2026-159C,2026-07-20T22:00:01.999584,15.80814311,.00012226,97.2851,40.9197,97.3563,27.7390,0,U,69977,999,277,-.1862791E-5,-.499E-5,0
STARLINK-38057,2026-159D,2026-07-20T22:00:01.999584,15.80737160,.00013999,97.2851,40.9210,91.2314,38.1115,0,U,69978,999,277,.6473192E-3,.125193E-2,0
STARLINK-38063,2026-159E,2026-07-20T22:00:01.999584,15.80809665,.0001618,97.2851,40.9230,102.3556,31.2844,0,U,69979,999,277,.81183331E-4,.15432E-3,0
STARLINK-38093,2026-159F,2026-07-20T22:00:01.999584,15.80801624,.00014812,97.2848,40.9241,94.3215,43.5956,0,U,69980,999,277,.54498608E-4,.10303E-3,0
STARLINK-38050,2026-159G,2026-07-20T22:00:01.999584,15.80766862,.00011177,97.2850,40.9256,109.8215,32.3729,0,U,69981,999,277,.26791509E-3,.51363E-3,0
STARLINK-38065,2026-159H,2026-07-20T22:00:01.999584,15.80791105,.00011393,97.2850,40.9281,98.3439,48.1232,0,U,69982,999,277,.92486077E-4,.17589E-3,0
STARLINK-38077,2026-159J,2026-07-20T22:00:01.999584,15.80793043,.00011033,97.2850,40.9299,97.2723,53.4673,0,U,69983,999,277,.10981257E-3,.2092E-3,0
STARLINK-38068,2026-159K,2026-07-20T22:00:01.999584,15.80794769,.00009778,97.2849,40.9312,114.7592,40.2508,0,U,69984,999,277,.57243927E-4,.10826E-3,0
STARLINK-38089,2026-159L,2026-07-20T22:00:01.999584,15.80782624,.00015283,97.2850,40.9337,98.4238,60.8736,0,U,69985,999,277,.16731232E-3,.31975E-3,0
