STARLINK-37824          
1 69956U 26157P   26201.91668981 -.00086247  00000+0 -43707-3 0  9997
2 69956  53.1594 266.9393 0000886  96.6079 287.2405 15.80908926  3077
STARLINK-37919          
1 69957U 26157Q   26201.91668981 -.00061427  00000+0 -30974-3 0  9993
2 69957  53.1594 266.9371 0001012  93.3448 291.4802 15.80883820  3073
STARLINK-37964          
1 69958U 26157R   26201.91668981 -.00074414  00000+0 -37629-3 0  9998
2 69958  53.1593 266.9238 0000683  89.1013 302.2005 15.80898698  3074
STARLINK-37907          
1 69959U 26157S   26201.91668981 -.00111897  00000+0 -57013-3 0  9995
2 69959  53.1593 266.9029 0001045  88.7908 312.6244 15.80896253  3079
STARLINK-37901          
1 69960U 26157T   26201.91668981 -.00060759  00000+0 -30621-3 0  9993
2 69960  53.1592 266.8895 0001011  95.1730 312.8271 15.80890361  3074
STARLINK-37910          
1 69961U 26157U   26201.91668981 -.00074082  00000+0 -37451-3 0  9996
2 69961  53.1592 266.8703 0000998  88.7396 328.3191 15.80902231  3075
STARLINK-37925          
1 69962U 26157V   26201.91668981 -.00093174  00000+0 -47342-3 0  9990
2 69962  53.1590 266.8663 0001020  87.3405 331.7449 15.80881852  3071
STARLINK-37931          
1 69963U 26157W   26201.91668981 -.00068971  00000+0 -34828-3 0  9993
2 69963  53.1591 266.8595 0000787  95.5838 326.7190 15.80898757  3076
STARLINK-37914          
1 69964U 26157X   26201.91668981 -.00015109  00000+0 -73178-4 0  9991
2 69964  53.1634 266.8245 0001173  94.0841 344.7856 15.80862386  3073
STARLINK-37840          
1 69965U 26157Y   26201.91668981 -.00051075  00000+0 -25662-3 0  9998
2 69965  53.1589 266.7894 0000879  91.2356   4.4852 15.80885419  3072
STARLINK-37894          
1 69966U 26157Z   26201.91668981 -.00036394  00000+0 -18156-3 0  9996
2 69966  53.1632 266.8039 0001175  72.6230  16.2977 15.80880491  3072
STARLINK-37875          
1 69967U 26157AA  26201.91668981 -.00076951  00000+0 -38929-3 0  9990
2 69967  53.1588 266.7823 0001083  84.1022  14.9609 15.80901618  3070
STARLINK-36218          
1 69968U 26157AB  26201.91668981 -.00060200  00000+0 -30352-3 0  9993
2 69968  53.1590 266.7549 0000875  93.2476  18.8826 15.80877745  2729
STARLINK-37921          
1 69969U 26157AC  26201.91668981 -.00087279  00000+0 -44253-3 0  9994
2 69969  53.1593 266.7176 0001056  79.1025  50.9761 15.80902151  3078
STARLINK-37896          
1 69970U 26157AD  26201.91668981 -.00092498  00000+0 -46941-3 0  9991
2 69970  53.1591 266.7154 0001013  92.1661  39.0054 15.80905826  3073
STARLINK-37922          
1 69971U 26157AE  26201.91668981 -.00090160  00000+0 -45728-3 0  9998
2 69971  53.1593 266.7125 0001021  91.1162  41.3798 15.80908252  3075
CHUANG XIN 26 (CX-26)   
1 69972U 26158A   26201.87718948 -.00000155  00000+0  21393-5 0  9992
2 69972  49.9830 256.4389 0004954 318.6414  41.4123 14.25124225  1514
CZ-10B DEB              
1 69973U 26158B   26201.87897899  .00000202  00000+0  15382-3 0  9997
2 69973  49.9833 256.4490 0005850 329.8508  30.2068 14.24892309  1513
CZ-10B R/B              
1 69974U 26158C   26201.45497508  .00000034  00000+0  39577-4 0  9991
2 69974  49.9628 255.3274 0197989 220.6667 137.9334 14.64300905  1491
STARLINK-38024          
1 69975U 26159A   26201.91668981 -.00010298  00000+0 -53086-4 0  9995
2 69975  97.2851  40.9159 0001531  97.6887  18.8614 15.80814499  2776
STARLINK-37993          
1 69976U 26159B   26201.91668981 -.00003544  00000+0 -17773-4 0  9995
2 69976  97.2851  40.9176 0001215  89.8015  31.0246 15.80808923  2774
STARLINK-37995          
1 69977U 26159C   26201.91668981 -.00000499  00000+0 -18628-5 0  9993
2 69977  97.2851  40.9197 0001222  97.3563  27.7390 15.80814311  2778
STARLINK-38057          
1 69978U 26159D   26201.91668981  .00125193  00000+0  64732-3 0  9996
2 69978  97.2851  40.9210 0001399  91.2314  38.1115 15.80737160  2774
STARLINK-38063          
1 69979U 26159E   26201.91668981  .00015432  00000+0  81183-4 0  9991
2 69979  97.2851  40.9230 0001618 102.3556  31.2844 15.80809665  2776
STARLINK-38093          
1 69980U 26159F   26201.91668981  .00010303  00000+0  54499-4 0  9995
2 69980  97.2848  40.9241 0001481  94.3215  43.5956 15.80801624  2773
STARLINK-38050          
1 69981U 26159G   26201.91668981  .00051363  00000+0  26792-3 0  9991
2 69981  97.2850  40.9256 0001117 109.8215  32.3729 15.80766862  2779
STARLINK-38065          
1 69982U 26159H   26201.91668981  .00017589  00000+0  92486-4 0  9998
2 69982  97.2850  40.9281 0001139  98.3439  48.1232 15.80791105  2774
STARLINK-38077          
1 69983U 26159J   26201.91668981  .00020920  00000+0  10981-3 0  9991
2 69983  97.2850  40.9299 0001103  97.2723  53.4673 15.80793043  2770
STARLINK-38068          
1 69984U 26159K   26201.91668981  .00010826  00000+0  57244-4 0  9990
2 69984  97.2849  40.9312 0000977 114.7592  40.2508 15.80794769  2779
STARLINK-38089          
1 69985U 26159L   26201.91668981  .00031975  00000+0  16731-3 0  9994
2 69985  97.2850  40.9337 0001528  98.4238  60.8736 15.80782624  2775
